NORAD_CAT_ID,OBJECT_NAME,OBJECT_TYPE,EPOCH,MEAN_MOTION,ECCENTRICITY,INCLINATION,RA_OF_ASC_NODE,ARG_OF_PERICENTER,MEAN_ANOMALY,BSTAR,MEAN_MOTION_DOT,MEAN_MOTION_DDOT,TLE_LINE0,TLE_LINE1,TLE_LINE2,SEMIMAJOR_AXIS,PERIOD,APOGEE,PERIGEE,DECAYED
52678.0,STARLINK-4074,PAYLOAD,2022-09-13 14:00:01,15.08842392,0.0001854,53.2149,99.3107,59.2594,33.644,-0.0016713,-0.00026791,0.0,0 STARLINK-4074,1 52678U 22053Y   22256.58334491 -.00026791  00000-0 -16713-2 0  9991,2 52678  53.2149  99.3107 0001854  59.2594  33.6440 15.08842392  1301,6917.873000000001,95.437,541.021,538.456,0.0
52678.0,STARLINK-4074,PAYLOAD,2022-09-13 20:00:01,15.08826077,0.0001943,53.2149,98.1899,53.2862,318.3197,-0.00086362,-0.00014001,0.0,0 STARLINK-4074,1 52678U 22053Y   22256.83334491 -.00014001  00000-0 -86362-3 0  9998,2 52678  53.2149  98.1899 0001943  53.2862 318.3197 15.08826077 18589,6917.9230000000025,95.438,541.132,538.444,0.0
52678.0,STARLINK-4074,PAYLOAD,2022-09-13 22:00:00,15.08809684,0.0001966999999999,53.2151,97.816,52.3511,52.1526,0.0014084,0.00022179,0.0,0 STARLINK-4074,1 52678U 22053Y   22256.91667824  .00022179  00000-0  14084-2 0  9990,2 52678  53.2151  97.8160 0001967  52.3511  52.1526 15.08809684  1302,6917.973000000001,95.439,541.1990000000002,538.477,0.0
52678.0,STARLINK-4074,PAYLOAD,2022-09-14 14:00:01,15.08830243,0.0001994,53.2169,94.8205,52.6684,74.9807,0.00069422,0.00010775,0.0,0 STARLINK-4074,1 52678U 22053Y   22257.58334491  .00010775  00000-0  69422-3 0  9991,2 52678  53.2169  94.8205 0001994  52.6684  74.9807 15.08830243 18703,6917.91,95.438,541.155,538.396,0.0
52678.0,STARLINK-4074,PAYLOAD,2022-09-14 22:00:00,15.088374599999998,0.0002092,53.2174,93.3259,50.0636,89.1735,-8.988e-05,-1.718e-05,0.0,0 STARLINK-4074,1 52678U 22053Y   22257.91667824 -.00001718  00000-0 -89880-4 0  9997,2 52678  53.2174  93.3259 0002092  50.0636  89.1735 15.08837460  1305,6917.888000000001,95.438,541.2,538.306,0.0
52678.0,STARLINK-4074,PAYLOAD,2022-09-15 14:00:01,15.08839512,0.0001804,53.2164,90.3322,56.4303,105.9949,0.0004386999999999,6.701e-05,0.0,0 STARLINK-4074,1 52678U 22053Y   22258.58334491  .00006701  00000-0  43870-3 0  9995,2 52678  53.2164  90.3322 0001804  56.4303 105.9949 15.08839512  1307,6917.882,95.438,540.995,538.499,0.0
52678.0,STARLINK-4074,PAYLOAD,2022-09-15 19:38:33,15.08835146,0.0001818,53.2165,89.2777,55.4832,304.6332,5.831100000000001e-05,6.4e-06,0.0,0 STARLINK-4074,1 52678U 22053Y   22258.81843827  .00000640  00000-0  58311-4 0  9992,2 52678  53.2165  89.2777 0001818  55.4832 304.6332 15.08835146 19313,6917.895,95.438,541.018,538.503,0.0
52678.0,STARLINK-4074,PAYLOAD,2022-09-16 11:32:24,15.08839593,0.0001833,53.2166,86.3039,55.771,304.3456,0.00014242,1.979e-05,0.0,0 STARLINK-4074,1 52678U 22053Y   22259.48083528  .00001979  00000-0  14242-3 0  9990,2 52678  53.2166  86.3039 0001833  55.7710 304.3456 15.08839593 19413,6917.882,95.438,541.015,538.479,0.0
52678.0,STARLINK-4074,PAYLOAD,2022-09-16 19:29:20,15.08832924,0.0001833,53.2168,84.8173,56.4723,303.6444,4.306100000000001e-05,3.97e-06,0.0,0 STARLINK-4074,1 52678U 22053Y   22259.81204358  .00000397  00000-0  43061-4 0  9998,2 52678  53.2168  84.8173 0001833  56.4723 303.6444 15.08832924 19464,6917.901999999999,95.438,541.035,538.499,0.0
52678.0,STARLINK-4074,PAYLOAD,2022-09-17 08:12:25,15.08835203,0.0001740999999999,53.217,82.43799999999997,53.6249,306.4903,2.279e-05,7.5e-07,0.0,0 STARLINK-4074,1 52678U 22053Y   22260.34196359  .00000075  00000-0  22790-4 0  9998,2 52678  53.2170  82.4380 0001741  53.6249 306.4903 15.08835203 19117,6917.895,95.438,540.964,538.556,0.0
52678.0,STARLINK-4074,PAYLOAD,2022-09-17 17:44:44,15.08836407,0.0001744,53.2172,80.6538,54.9266,305.189,9.6021e-05,1.24e-05,0.0,0 STARLINK-4074,1 52678U 22053Y   22260.73940173  .00001240  00000-0  96021-4 0  9995,2 52678  53.2172  80.6538 0001744  54.9266 305.1890 15.08836407 19602,6917.891,95.438,540.9630000000002,538.55,0.0
52678.0,STARLINK-4074,PAYLOAD,2022-09-18 11:13:58,15.08848488,0.0001786999999999,53.2176,77.3842,60.703,299.4141,2.0313e-05,3.5e-07,0.0,0 STARLINK-4074,1 52678U 22053Y   22261.46803592  .00000035  00000-0  20313-4 0  9991,2 52678  53.2176  77.3842 0001787  60.7030 299.4141 15.08848488 19288,6917.854,95.437,540.956,538.4830000000002,0.0
52678.0,STARLINK-4074,PAYLOAD,2022-09-18 19:10:54,15.08830065,0.0001710999999999,53.217,75.8961,51.0353,309.0791,5.462e-05,5.81e-06,0.0,0 STARLINK-4074,1 52678U 22053Y   22261.79924754  .00000581  00000-0  54620-4 0  9995,2 52678  53.2170  75.8961 0001711  51.0353 309.0791 15.08830065 19769,6917.911,95.438,540.9590000000002,538.592,0.0
52678.0,STARLINK-4074,PAYLOAD,2022-09-19 06:18:36,15.08839099,0.0001733999999999,53.2171,73.8145,51.1702,308.9445,7.513e-05,9.08e-06,0.0,0 STARLINK-4074,1 52678U 22053Y   22262.26292236  .00000908  00000-0  75130-4 0  9993,2 52678  53.2171  73.8145 0001734  51.1702 308.9445 15.08839099 19407,6917.8830000000025,95.438,540.948,538.549,0.0
52678.0,STARLINK-4074,PAYLOAD,2022-09-19 11:04:45,15.08842075,0.0001730999999999,53.2171,72.9222,52.6175,307.4974,5.8479e-05,6.43e-06,0.0,0 STARLINK-4074,1 52678U 22053Y   22262.46164083  .00000643  00000-0  58479-4 0  9996,2 52678  53.2171  72.9222 0001731  52.6175 307.4974 15.08842075 19869,6917.874,95.437,540.937,538.5419999999998,0.0
52678.0,STARLINK-4074,PAYLOAD,2022-09-19 20:37:03,15.08849667,0.0001708,53.217,71.1378,53.8816,306.2334,8.2258e-05,1.022e-05,0.0,0 STARLINK-4074,1 52678U 22053Y   22262.85907395  .00001022  00000-0  82258-4 0  9994,2 52678  53.2170  71.1378 0001708  53.8816 306.2334 15.08849667 19928,6917.851,95.437,540.8969999999998,538.534,0.0
52678.0,STARLINK-4074,PAYLOAD,2022-09-20 10:55:32,15.08835487,0.0001584,53.2172,68.461,53.6623,306.4515,6.9103e-05,8.12e-06,0.0,0 STARLINK-4074,1 52678U 22053Y   22263.45524046  .00000812  00000-0  69103-4 0  9999,2 52678  53.2172  68.4610 0001584  53.6623 306.4515 15.08835487 19584,6917.894,95.438,540.855,538.663,0.0
52678.0,STARLINK-4074,PAYLOAD,2022-09-20 17:17:05,15.08836612,0.0001598,53.2172,67.2715,53.4705,306.6434,7.2809e-05,8.71e-06,0.0,0 STARLINK-4074,1 52678U 22053Y   22263.72020023  .00000871  00000-0  72809-4 0  9997,2 52678  53.2172  67.2715 0001598  53.4705 306.6434 15.08836612 20058,6917.891,95.438,540.861,538.65,0.0
52678.0,STARLINK-4074,PAYLOAD,2022-09-21 04:24:46,15.08845491,0.0001621,53.2173,65.1898,54.4994,305.6149,8.2835e-05,1.031e-05,0.0,0 STARLINK-4074,1 52678U 22053Y   22264.18387395  .00001031  00000-0  82835-4 0  9995,2 52678  53.2173  65.1898 0001621  54.4994 305.6149 15.08845491 19691,6917.864000000001,95.437,540.85,538.607,0.0
52678.0,STARLINK-4074,PAYLOAD,2022-09-21 17:07:52,15.08836326,0.0001673,53.2169,62.8108,55.8177,304.2974,-4.3268e-05,-9.77e-06,0.0,0 STARLINK-4074,1 52678U 22053Y   22264.71380341 -.00000977  00000-0 -43268-4 0  9995,2 52678  53.2169  62.8108 0001673  55.8177 304.2974 15.08836326 19776,6917.892,95.438,540.914,538.599,0.0
52678.0,STARLINK-4074,PAYLOAD,2022-09-22 13:47:52,15.0884076,0.0001736,53.217,58.9454,50.392,309.7226,7.1486e-05,8.5e-06,0.0,0 STARLINK-4074,1 52678U 22053Y   22265.57491580  .00000850  00000-0  71486-4 0  9999,2 52678  53.2170  58.9454 0001736  50.3920 309.7226 15.08840760 19906,6917.878000000002,95.438,540.944,538.5419999999998,0.0
52678.0,STARLINK-4074,PAYLOAD,2022-09-22 16:58:39,15.08837767,0.0001658,53.2174,58.3507,51.047,309.0669,3.7526e-05,3.09e-06,0.0,0 STARLINK-4074,1 52678U 22053Y   22265.70739843  .00000309  00000-0  37526-4 0  9997,2 52678  53.2174  58.3507 0001658  51.0470 309.0669 15.08837767 20352,6917.887,95.438,540.899,538.605,0.0
52678.0,STARLINK-4074,PAYLOAD,2022-09-23 05:41:44,15.08827245,0.0001508,53.2183,55.9723,47.1202,312.9917,3.7524e-05,3.09e-06,0.0,0 STARLINK-4074,1 52678U 22053Y   22266.23732604  .00000309  00000-0  37524-4 0  9992,2 52678  53.2183  55.9723 0001508  47.1202 312.9917 15.08827245 20009,6917.919,95.438,540.828,538.741,0.0
52678.0,STARLINK-4074,PAYLOAD,2022-09-23 13:38:40,15.08833714,0.0001626999999999,53.2181,54.4857,48.6795,311.4337,7.7576e-05,9.47e-06,0.0,0 STARLINK-4074,1 52678U 22053Y   22266.56852246  .00000947  00000-0  77576-4 0  9992,2 52678  53.2181  54.4857 0001627  48.6795 311.4337 15.08833714 20484,6917.9,95.438,540.89,538.639,0.0
52678.0,STARLINK-4074,PAYLOAD,2022-09-23 16:49:26,15.08836998,0.0001718,53.218,53.8917,47.0396,313.074,9.6086e-05,1.241e-05,0.0,0 STARLINK-4074,1 52678U 22053Y   22266.70100057  .00001241  00000-0  96086-4 0  9999,2 52678  53.2180  53.8917 0001718  47.0396 313.0740 15.08836998 20072,6917.89,95.438,540.943,538.566,0.0
52678.0,STARLINK-4074,PAYLOAD,2022-09-24 13:29:27,15.08833928,0.0001918,53.2178,50.0267,42.0697,318.0442,9.0995e-05,1.16e-05,0.0,0 STARLINK-4074,1 52678U 22053Y   22267.56212206  .00001160  00000-0  90995-4 0  9997,2 52678  53.2178  50.0267 0001918  42.0697 318.0442 15.08833928 20633,6917.899,95.438,541.091,538.437,0.0
52678.0,STARLINK-4074,PAYLOAD,2022-09-24 16:40:13,15.08836841,0.0001916999999999,53.2179,49.4319,42.7518,317.3623,0.00010643,1.406e-05,0.0,0 STARLINK-4074,1 52678U 22053Y   22267.69460001  .00001406  00000-0  10643-3 0  9993,2 52678  53.2179  49.4319 0001917  42.7518 317.3623 15.08836841 20654,6917.89,95.438,541.081,538.429,0.0
52678.0,STARLINK-4074,PAYLOAD,2022-09-25 02:12:31,15.08843117,0.0001954,53.218,47.6478,43.5663,316.5483,0.00012003,1.623e-05,0.0,0 STARLINK-4074,1 52678U 22053Y   22268.09203587  .00001623  00000-0  12003-3 0  9995,2 52678  53.2180  47.6478 0001954  43.5663 316.5483 15.08843117 20281,6917.871,95.437,541.0880000000002,538.384,0.0
52678.0,STARLINK-4074,PAYLOAD,2022-09-25 11:44:51,15.08836811,0.000182,53.2179,45.8629,47.5093,312.6052,9.099e-06,-1.43e-06,0.0,0 STARLINK-4074,1 52678U 22053Y   22268.48948285 -.00000143  00000-0  90990-5 0  9999,2 52678  53.2179  45.8629 0001820  47.5093 312.6052 15.08836811 20349,6917.89,95.438,541.014,538.496,0.0
